[{"OBJECT_NAME":"STARLINK-2499","OBJECT_ID":"2021-038AA","EPOCH":"2026-03-09T22:36:48.851712","MEAN_MOTION":15.30195456,"ECCENTRICITY":0.00013952,"INCLINATION":53.1602,"RA_OF_ASC_NODE":346.6297,"ARG_OF_PERICENTER":114.177,"MEAN_ANOMALY":245.9377,"EPHEMERIS_TYPE":0,"CLASSIFICATION_TYPE":"U","NORAD_CAT_ID":48377,"ELEMENT_SET_NO":999,"REV_AT_EPOCH":26726,"BSTAR":7.9625583e-5,"MEAN_MOTION_DOT":1.999e-5,"MEAN_MOTION_DDOT":0},{"OBJECT_NAME":"OBJECT BC","OBJECT_ID":"2025-313BC","EPOCH":"2026-03-09T04:33:08.504064","MEAN_MOTION":15.29126358,"ECCENTRICITY":0.00084789,"INCLINATION":97.3985,"RA_OF_ASC_NODE":144.811,"ARG_OF_PERICENTER":328.9209,"MEAN_ANOMALY":31.1528,"EPHEMERIS_TYPE":0,"CLASSIFICATION_TYPE":"U","NORAD_CAT_ID":67298,"ELEMENT_SET_NO":999,"REV_AT_EPOCH":789,"BSTAR":0.0026410397,"MEAN_MOTION_DOT":0.00075331,"MEAN_MOTION_DDOT":0}]
